[{"OBJECT_NAME":"LUSAT (LO-19)","OBJECT_ID":"1990-005G","EPOCH":"2026-03-09T14:54:14.260896","MEAN_MOTION":14.34087969,"ECCENTRICITY":0.001234,"INCLINATION":98.8938,"RA_OF_ASC_NODE":87.6461,"ARG_OF_PERICENTER":134.6824,"MEAN_ANOMALY":225.5367,"EPHEMERIS_TYPE":0,"CLASSIFICATION_TYPE":"U","NORAD_CAT_ID":20442,"ELEMENT_SET_NO":999,"REV_AT_EPOCH":88812,"BSTAR":8.4338e-5,"MEAN_MOTION_DOT":1.89e-6,"MEAN_MOTION_DDOT":0},{"OBJECT_NAME":"FENGYUN 1C DEB","OBJECT_ID":"1999-025BRE","EPOCH":"2026-02-09T05:28:45.243552","MEAN_MOTION":14.35050589,"ECCENTRICITY":0.00654067,"INCLINATION":98.9646,"RA_OF_ASC_NODE":219.4562,"ARG_OF_PERICENTER":314.7278,"MEAN_ANOMALY":44.8592,"EPHEMERIS_TYPE":0,"CLASSIFICATION_TYPE":"U","NORAD_CAT_ID":31350,"ELEMENT_SET_NO":999,"REV_AT_EPOCH":71092,"BSTAR":0.00053583528,"MEAN_MOTION_DOT":1.517e-5,"MEAN_MOTION_DDOT":0}]
